IRIDIUM 63              
1 25286U 98021B   25354.77573353  .00000294  00000+0  92909-4 0  9999
2 25286  86.3979   3.8417 0002355  86.4137 273.7329 14.36741568450630
IRIDIUM 69              
1 25319U 98026A   25354.76878476  .00000306  00000+0  88543-4 0  9997
2 25319  86.3971  16.5437 0004418 110.7927 249.3746 14.41223557449934
IRIDIUM 71              
1 25320U 98026B   25354.75500329  .00000227  00000+0  63996-4 0  9994
2 25320  86.3971  11.2215 0002766 140.2525 219.8877 14.41322376450464
IRIDIUM 73              
1 25344U 98032C   25354.91082858  .00000463  00000+0  10964-3 0  9995
2 25344  86.4411 327.5159 0003014  87.0748 273.0803 14.51999734457650
IRIDIUM 82              
1 25467U 98051A   25354.53982922  .00031614  00000+0  57896-3 0  9998
2 25467  86.3598  17.1795 0058439 304.0319  55.5396 15.47238318452606
